[{"OBJECT_NAME":"STARLINK-1366","OBJECT_ID":"2020-025AQ","EPOCH":"2026-03-09T04:55:39.369792","MEAN_MOTION":15.75756697,"ECCENTRICITY":0.00085074,"INCLINATION":53.044,"RA_OF_ASC_NODE":40.9129,"ARG_OF_PERICENTER":56.1589,"MEAN_ANOMALY":304.0238,"EPHEMERIS_TYPE":0,"CLASSIFICATION_TYPE":"U","NORAD_CAT_ID":45569,"ELEMENT_SET_NO":999,"REV_AT_EPOCH":32596,"BSTAR":0.00070244107,"MEAN_MOTION_DOT":0.00111184,"MEAN_MOTION_DDOT":0},{"OBJECT_NAME":"STARLINK-36394","OBJECT_ID":"2026-016F","EPOCH":"2026-03-09T17:11:11.874624","MEAN_MOTION":15.75240486,"ECCENTRICITY":0.00013847,"INCLINATION":97.2853,"RA_OF_ASC_NODE":129.1435,"ARG_OF_PERICENTER":80.6821,"MEAN_ANOMALY":279.4601,"EPHEMERIS_TYPE":0,"CLASSIFICATION_TYPE":"U","NORAD_CAT_ID":67566,"ELEMENT_SET_NO":999,"REV_AT_EPOCH":680,"BSTAR":0.0013747673,"MEAN_MOTION_DOT":0.00210519,"MEAN_MOTION_DDOT":0}]
